CCSDS_OMM_VERS = 2.0
CREATION_DATE  = 
ORIGINATOR     = 

OBJECT_NAME    = DELTA 2 R/B(1)
OBJECT_ID      = 1990-008B
CENTER_NAME    = EARTH
REF_FRAME      = TEME
TIME_SYSTEM    = UTC
MEAN_ELEMENT_THEORY = SGP/SGP4

EPOCH          = 2026-01-01T01:24:37.486080
MEAN_MOTION    = 15.47080121
ECCENTRICITY   = .01068181
INCLINATION    = 35.6058
RA_OF_ASC_NODE = 255.6240
ARG_OF_PERICENTER = 353.5547
MEAN_ANOMALY   = 6.3809

EPHEMERIS_TYPE = 0
CLASSIFICATION_TYPE = U
NORAD_CAT_ID   = 20453
ELEMENT_SET_NO = 999
REV_AT_EPOCH   = 91562
BSTAR          = .10335579E-2
MEAN_MOTION_DOT = .68201E-3
MEAN_MOTION_DDOT = 0

CCSDS_OMM_VERS = 2.0
CREATION_DATE  = 
ORIGINATOR     = 

OBJECT_NAME    = COSMOS 2058
OBJECT_ID      = 1990-010A
CENTER_NAME    = EARTH
REF_FRAME      = TEME
TIME_SYSTEM    = UTC
MEAN_ELEMENT_THEORY = SGP/SGP4

EPOCH          = 2026-01-01T08:46:27.528960
MEAN_MOTION    = 15.10689026
ECCENTRICITY   = .00099773
INCLINATION    = 82.4718
RA_OF_ASC_NODE = 113.7278
ARG_OF_PERICENTER = 201.7088
MEAN_ANOMALY   = 158.3720

EPHEMERIS_TYPE = 0
CLASSIFICATION_TYPE = U
NORAD_CAT_ID   = 20465
ELEMENT_SET_NO = 999
REV_AT_EPOCH   = 93207
BSTAR          = .43675358E-3
MEAN_MOTION_DOT = .7266E-4
MEAN_MOTION_DDOT = 0

CCSDS_OMM_VERS = 2.0
CREATION_DATE  = 
ORIGINATOR     = 

OBJECT_NAME    = SL-14 R/B
OBJECT_ID      = 1990-010B
CENTER_NAME    = EARTH
REF_FRAME      = TEME
TIME_SYSTEM    = UTC
MEAN_ELEMENT_THEORY = SGP/SGP4

EPOCH          = 2026-01-01T08:58:01.511040
MEAN_MOTION    = 14.83493865
ECCENTRICITY   = .00203345
INCLINATION    = 82.5030
RA_OF_ASC_NODE = 330.6068
ARG_OF_PERICENTER = 157.4957
MEAN_ANOMALY   = 202.7155

EPHEMERIS_TYPE = 0
CLASSIFICATION_TYPE = U
NORAD_CAT_ID   = 20466
ELEMENT_SET_NO = 999
REV_AT_EPOCH   = 91850
BSTAR          = .10568399E-3
MEAN_MOTION_DOT = .896E-5
MEAN_MOTION_DDOT = 0

CCSDS_OMM_VERS = 2.0
CREATION_DATE  = 
ORIGINATOR     = 

OBJECT_NAME    = SL-14 R/B
OBJECT_ID      = 1990-018B
CENTER_NAME    = EARTH
REF_FRAME      = TEME
TIME_SYSTEM    = UTC
MEAN_ELEMENT_THEORY = SGP/SGP4

EPOCH          = 2026-01-01T06:13:07.233600
MEAN_MOTION    = 14.82070963
ECCENTRICITY   = .00153892
INCLINATION    = 82.5221
RA_OF_ASC_NODE = 286.1223
ARG_OF_PERICENTER = 318.2093
MEAN_ANOMALY   = 41.7945

EPHEMERIS_TYPE = 0
CLASSIFICATION_TYPE = U
NORAD_CAT_ID   = 20511
ELEMENT_SET_NO = 999
REV_AT_EPOCH   = 91259
BSTAR          = .11135906E-3
MEAN_MOTION_DOT = .909E-5
MEAN_MOTION_DDOT = 0

CCSDS_OMM_VERS = 2.0
CREATION_DATE  = 
ORIGINATOR     = 

OBJECT_NAME    = HST
OBJECT_ID      = 1990-037B
CENTER_NAME    = EARTH
REF_FRAME      = TEME
TIME_SYSTEM    = UTC
MEAN_ELEMENT_THEORY = SGP/SGP4

EPOCH          = 2026-01-01T10:46:44.994432
MEAN_MOTION    = 15.28330748
ECCENTRICITY   = .00025947
INCLINATION    = 28.4656
RA_OF_ASC_NODE = 138.3049
ARG_OF_PERICENTER = 90.0129
MEAN_ANOMALY   = 270.0764

EPHEMERIS_TYPE = 0
CLASSIFICATION_TYPE = U
NORAD_CAT_ID   = 20580
ELEMENT_SET_NO = 999
REV_AT_EPOCH   = 76301
BSTAR          = .3625132E-3
MEAN_MOTION_DOT = .10528E-3
MEAN_MOTION_DDOT = 0

CCSDS_OMM_VERS = 2.0
CREATION_DATE  = 
ORIGINATOR     = 

OBJECT_NAME    = SL-16 R/B
OBJECT_ID      = 1990-046B
CENTER_NAME    = EARTH
REF_FRAME      = TEME
TIME_SYSTEM    = UTC
MEAN_ELEMENT_THEORY = SGP/SGP4

EPOCH          = 2026-01-01T14:39:07.383168
MEAN_MOTION    = 14.14999341
ECCENTRICITY   = .00126402
INCLINATION    = 70.9993
RA_OF_ASC_NODE = 78.7921
ARG_OF_PERICENTER = 39.6919
MEAN_ANOMALY   = 320.5126

EPHEMERIS_TYPE = 0
CLASSIFICATION_TYPE = U
NORAD_CAT_ID   = 20625
ELEMENT_SET_NO = 999
REV_AT_EPOCH   = 83890
BSTAR          = .16559412E-3
MEAN_MOTION_DOT = .273E-5
MEAN_MOTION_DDOT = 0

CCSDS_OMM_VERS = 2.0
CREATION_DATE  = 
ORIGINATOR     = 

OBJECT_NAME    = COSMOS 2084
OBJECT_ID      = 1990-055A
CENTER_NAME    = EARTH
REF_FRAME      = TEME
TIME_SYSTEM    = UTC
MEAN_ELEMENT_THEORY = SGP/SGP4

EPOCH          = 2026-01-01T15:11:16.354752
MEAN_MOTION    = 15.05155526
ECCENTRICITY   = .00284844
INCLINATION    = 62.7889
RA_OF_ASC_NODE = 204.2044
ARG_OF_PERICENTER = 177.5295
MEAN_ANOMALY   = 182.5952

EPHEMERIS_TYPE = 0
CLASSIFICATION_TYPE = U
NORAD_CAT_ID   = 20663
ELEMENT_SET_NO = 999
REV_AT_EPOCH   = 92622
BSTAR          = .40073966E-3
MEAN_MOTION_DOT = .5589E-4
MEAN_MOTION_DDOT = 0

CCSDS_OMM_VERS = 2.0
CREATION_DATE  = 
ORIGINATOR     = 

OBJECT_NAME    = SL-6 R/B(2)
OBJECT_ID      = 1990-055D
CENTER_NAME    = EARTH
REF_FRAME      = TEME
TIME_SYSTEM    = UTC
MEAN_ELEMENT_THEORY = SGP/SGP4

EPOCH          = 2026-01-01T14:12:38.853504
MEAN_MOTION    = 15.03191789
ECCENTRICITY   = .00151777
INCLINATION    = 62.7836
RA_OF_ASC_NODE = 121.9550
ARG_OF_PERICENTER = 321.8194
MEAN_ANOMALY   = 38.1829

EPHEMERIS_TYPE = 0
CLASSIFICATION_TYPE = U
NORAD_CAT_ID   = 20666
ELEMENT_SET_NO = 999
REV_AT_EPOCH   = 92810
BSTAR          = .37156029E-3
MEAN_MOTION_DOT = .4867E-4
MEAN_MOTION_DDOT = 0

CCSDS_OMM_VERS = 2.0
CREATION_DATE  = 
ORIGINATOR     = 

OBJECT_NAME    = SL-8 R/B
OBJECT_ID      = 1990-078B
CENTER_NAME    = EARTH
REF_FRAME      = TEME
TIME_SYSTEM    = UTC
MEAN_ELEMENT_THEORY = SGP/SGP4

EPOCH          = 2026-01-01T09:20:56.258592
MEAN_MOTION    = 14.86645185
ECCENTRICITY   = .03693878
INCLINATION    = 82.9059
RA_OF_ASC_NODE = 311.7121
ARG_OF_PERICENTER = 239.7155
MEAN_ANOMALY   = 116.7036

EPHEMERIS_TYPE = 0
CLASSIFICATION_TYPE = U
NORAD_CAT_ID   = 20775
ELEMENT_SET_NO = 999
REV_AT_EPOCH   = 79929
BSTAR          = .57866909E-3
MEAN_MOTION_DOT = .18839E-3
MEAN_MOTION_DDOT = 0

CCSDS_OMM_VERS = 2.0
CREATION_DATE  = 
ORIGINATOR     = 

OBJECT_NAME    = SL-8 R/B
OBJECT_ID      = 1991-006B
CENTER_NAME    = EARTH
REF_FRAME      = TEME
TIME_SYSTEM    = UTC
MEAN_ELEMENT_THEORY = SGP/SGP4

EPOCH          = 2026-01-01T13:55:10.318656
MEAN_MOTION    = 13.77492875
ECCENTRICITY   = .00215806
INCLINATION    = 82.9408
RA_OF_ASC_NODE = 219.9548
ARG_OF_PERICENTER = 221.0991
MEAN_ANOMALY   = 196.7299

EPHEMERIS_TYPE = 0
CLASSIFICATION_TYPE = U
NORAD_CAT_ID   = 21088
ELEMENT_SET_NO = 999
REV_AT_EPOCH   = 75483
BSTAR          = .4866144E-4
MEAN_MOTION_DOT = .64E-6
MEAN_MOTION_DDOT = 0

CCSDS_OMM_VERS = 2.0
CREATION_DATE  = 
ORIGINATOR     = 

OBJECT_NAME    = OKEAN-3
OBJECT_ID      = 1991-039A
CENTER_NAME    = EARTH
REF_FRAME      = TEME
TIME_SYSTEM    = UTC
MEAN_ELEMENT_THEORY = SGP/SGP4

EPOCH          = 2026-01-01T13:44:33.743328
MEAN_MOTION    = 15.04258395
ECCENTRICITY   = .00138654
INCLINATION    = 82.5158
RA_OF_ASC_NODE = 41.8475
ARG_OF_PERICENTER = 192.3002
MEAN_ANOMALY   = 167.7888

EPHEMERIS_TYPE = 0
CLASSIFICATION_TYPE = U
NORAD_CAT_ID   = 21397
ELEMENT_SET_NO = 999
REV_AT_EPOCH   = 85494
BSTAR          = .42618692E-3
MEAN_MOTION_DOT = .5966E-4
MEAN_MOTION_DDOT = 0

CCSDS_OMM_VERS = 2.0
CREATION_DATE  = 
ORIGINATOR     = 

OBJECT_NAME    = COSMOS 2151
OBJECT_ID      = 1991-042A
CENTER_NAME    = EARTH
REF_FRAME      = TEME
TIME_SYSTEM    = UTC
MEAN_ELEMENT_THEORY = SGP/SGP4

EPOCH          = 2026-01-01T13:44:37.152672
MEAN_MOTION    = 14.99783697
ECCENTRICITY   = .00112269
INCLINATION    = 82.4968
RA_OF_ASC_NODE = 148.3900
ARG_OF_PERICENTER = 287.9675
MEAN_ANOMALY   = 72.0324

EPHEMERIS_TYPE = 0
CLASSIFICATION_TYPE = U
NORAD_CAT_ID   = 21422
ELEMENT_SET_NO = 999
REV_AT_EPOCH   = 85313
BSTAR          = .30205458E-3
MEAN_MOTION_DOT = .3764E-4
MEAN_MOTION_DDOT = 0

