DELTA 2 R/B(1)          
1 20453U 90008B   26001.05876720  .00068201  00000+0  10336-2 0  9996
2 20453  35.6058 255.6240 0106818 353.5547   6.3809 15.47080121915621
COSMOS 2058             
1 20465U 90010A   26001.36559640  .00007266  00000+0  43675-3 0  9992
2 20465  82.4718 113.7278 0009977 201.7088 158.3720 15.10689026932071
SL-14 R/B               
1 20466U 90010B   26001.37362860  .00000896  00000+0  10568-3 0  9997
2 20466  82.5030 330.6068 0020334 157.4957 202.7155 14.83493865918500
SL-14 R/B               
1 20511U 90018B   26001.25911150  .00000909  00000+0  11136-3 0  9992
2 20511  82.5221 286.1223 0015389 318.2093  41.7945 14.82070963912593
HST                     
1 20580U 90037B   26001.44913188  .00010528  00000+0  36251-3 0  9996
2 20580  28.4656 138.3049 0002594  90.0129 270.0764 15.28330748763011
SL-16 R/B               
1 20625U 90046B   26001.61050212  .00000273  00000+0  16559-3 0  9990
2 20625  70.9993  78.7921 0012640  39.6919 320.5126 14.14999341838900
COSMOS 2084             
1 20663U 90055A   26001.63282818  .00005589  00000+0  40074-3 0  9997
2 20663  62.7889 204.2044 0028484 177.5295 182.5952 15.05155526926225
SL-6 R/B(2)             
1 20666U 90055D   26001.59211636  .00004867  00000+0  37156-3 0  9990
2 20666  62.7836 121.9550 0015177 321.8194  38.1829 15.03191789928101
SL-8 R/B                
1 20775U 90078B   26001.38954003  .00018839  00000+0  57867-3 0  9990
2 20775  82.9059 311.7121 0369387 239.7155 116.7036 14.86645185799298
SL-8 R/B                
1 21088U 91006B   26001.57998054  .00000064  00000+0  48661-4 0  9999
2 21088  82.9408 219.9548 0021580 221.0991 196.7299 13.77492875754833
OKEAN-3                 
1 21397U 91039A   26001.57261277  .00005966  00000+0  42619-3 0  9990
2 21397  82.5158  41.8475 0013865 192.3002 167.7888 15.04258395854949
COSMOS 2151             
1 21422U 91042A   26001.57265223  .00003764  00000+0  30205-3 0  9990
2 21422  82.4968 148.3900 0011226 287.9675  72.0324 14.99783697853132
